GLOBALSTAR M057 [-]     
1 25943U 99058A   23221.27566958 -.00000105  00000+0 -10955-3 0  9992
2 25943  51.9981 112.0082 0003270  55.8123 304.3036 12.24772595 83934
GLOBALSTAR M056 [-]     
1 25945U 99058C   23224.85873144 -.00000092  00000+0 -50474-4 0  9995
2 25945  51.9927 250.6905 0000894 258.9467 270.9711 12.04767595 81393
GLOBALSTAR M031 [-]     
1 25946U 99058D   23225.13119970 -.00000121  00000+0 -30544-3 0  9996
2 25946  51.9935 182.5852 0001488 259.8223 113.5809 12.15994295 82782
GLOBALSTAR M039 [-]     
1 25961U 99062A   23225.24632438 -.00000085  00000+0  10276-3 0  9997
2 25961  51.9832 161.2976 0002781 303.6241  56.4360 12.62268069 95136
GLOBALSTAR M034 [-]     
1 25962U 99062B   23224.43569431 -.00000065  00000+0  24885-3 0  9999
2 25962  51.9891 325.3009 0014195 204.5604 233.3235 11.79413953 58751
GLOBALSTAR M029 [-]     
1 25963U 99062C   23225.11566890 -.00000079  00000+0  90200-4 0  9992
2 25963  51.9801 119.3171 0001951 239.0211 291.0811 11.99866398 88253
GLOBALSTAR M061 [-]     
1 25964U 99062D   23224.76355549 -.00000101  00000+0 -33989-3 0  9997
2 25964  51.9779 139.5468 0005814 132.6015 241.4389 11.76749216 42076
